ONEWEB-0395             
1 50475U 21132G   26185.79159112 -.00000606  00000+0 -17450-2 0  9999
2 50475  87.8877  17.5615 0002073  86.5725 273.5640 13.11416093218027
ONEWEB-0396             
1 50476U 21132H   26185.84647342  .00000070  00000+0  14474-3 0  9990
2 50476  87.9188 331.9427 0001764  91.1517 268.9818 13.18685785223962
ONEWEB-0397             
1 50477U 21132J   26185.63401709  .00000052  00000+0  98319-4 0  9994
2 50477  87.9187 331.9848 0001647  91.1414 268.9907 13.18686301223914
ONEWEB-0398             
1 50478U 21132K   26185.22531266  .00000362  00000+0  98692-3 0  9999
2 50478  87.8884  17.6662 0002151  91.1355 269.0020 13.11414645217841
ONEWEB-0399             
1 50479U 21132L   26185.82212488  .00000486  00000+0  13343-2 0  9994
2 50479  87.8888  17.5585 0001782  73.2549 286.8774 13.11417362217914
ONEWEB-0400             
1 50480U 21132M   26185.83972783  .00000040  00000+0  68681-4 0  9991
2 50480  87.9186 331.9338 0002027  97.4108 262.7255 13.18686144223938
ONEWEB-0401             
1 50481U 21132N   26185.65762615  .00000145  00000+0  33568-3 0  9994
2 50481  87.9189 331.9675 0001649  99.2981 260.8338 13.18686270223913
ONEWEB-0402             
1 50482U 21132P   26185.84815682  .00000054  00000+0  10377-3 0  9991
2 50482  87.9186 331.9184 0001380 100.4040 259.7248 13.18686794223962
ONEWEB-0403             
1 50483U 21132Q   26185.87345330  .00000018  00000+0  13996-4 0  9994
2 50483  87.9185 331.9377 0001878  91.5734 268.5614 13.18685577223927
ONEWEB-0404             
1 50484U 21132R   26185.80345451 -.00000301  00000+0 -88609-3 0  9991
2 50484  87.8882  17.5597 0001990  79.8368 280.2984 13.11417361218000
ONEWEB-0405             
1 50485U 21132S   26185.65929519 -.00000112  00000+0 -31610-3 0  9998
2 50485  87.9192 331.9655 0002330 100.7342 259.4052 13.18686006224292
ONEWEB-0406             
1 50486U 21132T   26185.87850814  .00000039  00000+0  65695-4 0  9991
2 50486  87.9184 331.9372 0001995  80.4139 279.7218 13.18686263223950
ONEWEB-0407             
1 50487U 21132U   26185.64413154  .00000081  00000+0  17157-3 0  9995
2 50487  87.9189 331.9765 0001835 102.5849 257.5488 13.18688732223865
ONEWEB-0409             
1 50488U 21132V   26185.80176412 -.00000350  00000+0 -10232-2 0  9994
2 50488  87.8888  17.5490 0002044  82.7763 277.3597 13.11417603217897
ONEWEB-0412             
1 50489U 21132W   26185.85995993  .00000004  00000+0 -21688-4 0  9997
2 50489  87.9185 331.9416 0001664 100.3596 259.7724 13.18686330223983
ONEWEB-0413             
1 50490U 21132X   26185.86502384  .00000008  00000+0 -11887-4 0  9992
2 50490  87.9179 331.9379 0001624 103.7478 256.3835 13.18687066223925
ONEWEB-0414             
1 50491U 21132Y   26185.69809088  .00000122  00000+0  27590-3 0  9998
2 50491  87.9187 331.9547 0001685  93.6410 266.4915 13.18687129223934
ONEWEB-0417             
1 50492U 21132Z   26185.85827270  .00000020  00000+0  18093-4 0  9996
2 50492  87.9179 331.9409 0001938  89.5360 270.5994 13.18686705223934
ONEWEB-0418             
1 50493U 21132AA  26185.64061725  .00000048  00000+0  89876-4 0  9996
2 50493  87.9185 331.9851 0001971  88.7827 271.3531 13.18686304223963
ONEWEB-0419             
1 50494U 21132AB  26185.65948479  .00000094  00000+0  20457-3 0  9998
2 50494  87.9189 331.9815 0002117  93.6628 266.4746 13.18666698223883
ONEWEB-0420             
1 50495U 21132AC  26185.85151900  .00000091  00000+0  19853-3 0  9991
2 50495  87.9181 331.9446 0001839 102.8230 257.3107 13.18686740223901
ONEWEB-0421             
1 50496U 21132AD  26185.38953312  .00000017  00000+0  92983-5 0  9992
2 50496  87.9180 332.0345 0001503  90.3399 269.7905 13.18685304223881
ONEWEB-0424             
1 50497U 21132AE  26185.88188425  .00000100  00000+0  22117-3 0  9996
2 50497  87.9188 331.9356 0002235  95.8431 264.2956 13.18685965223979
ONEWEB-0426             
1 50498U 21132AF  26185.68881604  .00000120  00000+0  27041-3 0  9997
2 50498  87.9187 331.9649 0001669  73.7753 286.3563 13.18686031223891
ONEWEB-0427             
1 50499U 21132AG  26185.65256933  .00000028  00000+0  39048-4 0  9994
2 50499  87.9190 331.9612 0001897  89.6674 270.4675 13.18686395223911
ONEWEB-0429             
1 50500U 21132AH  26185.63907036  .00000074  00000+0  15421-3 0  9991
2 50500  87.9180 331.9869 0001827 100.1233 260.0105 13.18687187223889
ONEWEB-0430             
1 50501U 21132AJ  26185.85490353  .00000039  00000+0  64993-4 0  9995
2 50501  87.9181 331.9425 0001937 104.3176 255.8172 13.18687710223959
ONEWEB-0432             
1 50502U 21132AK  26185.91670139 -.00000917  00000+0 -23580-2 0  9997
2 50502  87.9200 331.9163 0002254 101.5764 272.4048 13.18693112  5257
ONEWEB-0440             
1 50503U 21132AL  26185.87513361 -.00000003  00000+0 -40619-4 0  9996
2 50503  87.9190 331.9358 0001513 100.0259 260.1044 13.18686557223901
ONEWEB-0450             
1 50504U 21132AM  26185.86852980  .00000020  00000+0  17607-4 0  9997
2 50504  87.9179 331.9405 0001868 102.6688 257.4654 13.18686305223939
